[{"OBJECT_NAME":"STARLINK-31702","OBJECT_ID":"2024-076X","EPOCH":"2026-03-09T04:45:32.583456","MEAN_MOTION":15.27570248,"ECCENTRICITY":0.00016186,"INCLINATION":43.003,"RA_OF_ASC_NODE":12.1073,"ARG_OF_PERICENTER":250.6764,"MEAN_ANOMALY":109.3912,"EPHEMERIS_TYPE":0,"CLASSIFICATION_TYPE":"U","NORAD_CAT_ID":59585,"ELEMENT_SET_NO":999,"REV_AT_EPOCH":10642,"BSTAR":-7.2845953e-5,"MEAN_MOTION_DOT":-2.266e-5,"MEAN_MOTION_DDOT":0},{"OBJECT_NAME":"CZ-6A DEB","OBJECT_ID":"2023-168D","EPOCH":"2026-03-09T19:03:52.964928","MEAN_MOTION":15.28240044,"ECCENTRICITY":0.00013417,"INCLINATION":97.7802,"RA_OF_ASC_NODE":98.3362,"ARG_OF_PERICENTER":174.0661,"MEAN_ANOMALY":186.0594,"EPHEMERIS_TYPE":0,"CLASSIFICATION_TYPE":"U","NORAD_CAT_ID":58202,"ELEMENT_SET_NO":999,"REV_AT_EPOCH":12922,"BSTAR":0.0014474773,"MEAN_MOTION_DOT":0.00039923,"MEAN_MOTION_DDOT":0}]
